SUPERVIEW NEO-2 OBJECT A
1 68377U 26062A   26106.12567791  .00001530  00000+0  74660-4 0  9995
2 68377  97.4383 114.3177 0003484 165.7781 194.3553 15.19800366  3221
SUPERVIEW NEO-2 OBJECT B
1 68378U 26062B   26106.12564248  .00001567  00000+0  76527-4 0  9994
2 68378  97.4416 114.3161 0002000  97.3979 262.7483 15.19718143  3227
STARLINK-36296          
1 68380U 26063A   26107.25003472 -.00077869  00000+0 -52547-3 0  9995
2 68380  97.2862 249.0978 0001471  83.2810 218.5601 15.75211022  1858
STARLINK-37111          
1 68381U 26063B   26107.25003472 -.00066897  00000+0 -44959-3 0  9993
2 68381  97.2858 248.9304 0001700  57.7222 224.0420 15.75268705  4666
STARLINK-36946          
1 68382U 26063C   26107.32152717  .00234590  00000+0  11877-2 0  9996
2 68382  97.2849 249.0182 0001188  85.1482 274.9922 15.80909429  3724
STARLINK-37121          
1 68383U 26063D   26107.25003472 -.00106438  00000+0 -72063-3 0  9998
2 68383  97.2860 248.9206 0001091  92.9120 164.9574 15.75222932  4667
STARLINK-37137          
1 68384U 26063E   26107.16114279  .00159466  00000+0  10493-2 0  9992
2 68384  97.2843 248.7767 0001329  75.3522 284.7891 15.75209836  3697
STARLINK-37128          
1 68385U 26063F   26107.31927477  .00128635  00000+0  66100-3 0  9993
2 68385  97.2849 249.0220 0001389  75.5401 284.6021 15.80863907  3725
STARLINK-37198          
1 68386U 26063G   26107.27231564  .00099219  00000+0  65791-3 0  9994
2 68386  97.2849 248.9322 0001335  71.7585 288.3826 15.75206186  3716
STARLINK-37223          
1 68387U 26063H   26107.19117005  .00160297  00000+0  82064-3 0  9996
2 68387  97.2847 248.8896 0001333  63.4462 296.6943 15.80860687  3709
STARLINK-37203          
1 68388U 26063J   26107.25371988  .00130472  00000+0  67091-3 0  9991
2 68388  97.2847 248.9575 0001301  78.6987 281.4427 15.80843602  3718
STARLINK-37197          
1 68389U 26063K   26107.21831717  .00090586  00000+0  60159-3 0  9998
2 68389  97.2845 248.8522 0001328  79.0392 281.1022 15.75196929  3706
STARLINK-37193          
1 68390U 26063L   26107.25003472 -.00081040  00000+0 -54704-3 0  9999
2 68390  97.2847 249.1733 0001438  81.4810  52.3290 15.75214008  2996
