[
  {
    "OBJECT_NAME": "SUPERVIEW NEO-2 OBJECT A",
    "OBJECT_ID": "2026-062A",
    "EPOCH": "2026-04-16T03:00:58.571424",
    "MEAN_MOTION": 15.19800366,
    "ECCENTRICITY": 0.00034847,
    "INCLINATION": 97.4383,
    "RA_OF_ASC_NODE": 114.3177,
    "ARG_OF_PERICENTER": 165.7781,
    "MEAN_ANOMALY": 194.3553,
    "EPHEMERIS_TYPE": 0,
    "CLASSIFICATION_TYPE": "U",
    "NORAD_CAT_ID": 68377,
    "ELEMENT_SET_NO": 999,
    "REV_AT_EPOCH": 322,
    "BSTAR": 7.4660447e-05,
    "MEAN_MOTION_DOT": 1.53e-05,
    "MEAN_MOTION_DDOT": 0
  },
  {
    "OBJECT_NAME": "SUPERVIEW NEO-2 OBJECT B",
    "OBJECT_ID": "2026-062B",
    "EPOCH": "2026-04-16T03:00:55.510272",
    "MEAN_MOTION": 15.19718143,
    "ECCENTRICITY": 0.00020007,
    "INCLINATION": 97.4416,
    "RA_OF_ASC_NODE": 114.3161,
    "ARG_OF_PERICENTER": 97.3979,
    "MEAN_ANOMALY": 262.7483,
    "EPHEMERIS_TYPE": 0,
    "CLASSIFICATION_TYPE": "U",
    "NORAD_CAT_ID": 68378,
    "ELEMENT_SET_NO": 999,
    "REV_AT_EPOCH": 322,
    "BSTAR": 7.6526966e-05,
    "MEAN_MOTION_DOT": 1.567e-05,
    "MEAN_MOTION_DDOT": 0
  },
  {
    "OBJECT_NAME": "STARLINK-36296",
    "OBJECT_ID": "2026-063A",
    "EPOCH": "2026-04-17T06:00:02.999808",
    "MEAN_MOTION": 15.75211022,
    "ECCENTRICITY": 0.00014713,
    "INCLINATION": 97.2862,
    "RA_OF_ASC_NODE": 249.0978,
    "ARG_OF_PERICENTER": 83.281,
    "MEAN_ANOMALY": 218.5601,
    "EPHEMERIS_TYPE": 0,
    "CLASSIFICATION_TYPE": "U",
    "NORAD_CAT_ID": 68380,
    "ELEMENT_SET_NO": 999,
    "REV_AT_EPOCH": 185,
    "BSTAR": -0.00052547219,
    "MEAN_MOTION_DOT": -0.00077869,
    "MEAN_MOTION_DDOT": 0
  },
  {
    "OBJECT_NAME": "STARLINK-37111",
    "OBJECT_ID": "2026-063B",
    "EPOCH": "2026-04-17T06:00:02.999808",
    "MEAN_MOTION": 15.75268705,
    "ECCENTRICITY": 0.00017007,
    "INCLINATION": 97.2858,
    "RA_OF_ASC_NODE": 248.9304,
    "ARG_OF_PERICENTER": 57.7222,
    "MEAN_ANOMALY": 224.042,
    "EPHEMERIS_TYPE": 0,
    "CLASSIFICATION_TYPE": "U",
    "NORAD_CAT_ID": 68381,
    "ELEMENT_SET_NO": 999,
    "REV_AT_EPOCH": 466,
    "BSTAR": -0.00044959053,
    "MEAN_MOTION_DOT": -0.00066897,
    "MEAN_MOTION_DDOT": 0
  },
  {
    "OBJECT_NAME": "STARLINK-36946",
    "OBJECT_ID": "2026-063C",
    "EPOCH": "2026-04-17T07:42:59.947488",
    "MEAN_MOTION": 15.80909429,
    "ECCENTRICITY": 0.00011881,
    "INCLINATION": 97.2849,
    "RA_OF_ASC_NODE": 249.0182,
    "ARG_OF_PERICENTER": 85.1482,
    "MEAN_ANOMALY": 274.9922,
    "EPHEMERIS_TYPE": 0,
    "CLASSIFICATION_TYPE": "U",
    "NORAD_CAT_ID": 68382,
    "ELEMENT_SET_NO": 999,
    "REV_AT_EPOCH": 372,
    "BSTAR": 0.0011877463,
    "MEAN_MOTION_DOT": 0.0023459,
    "MEAN_MOTION_DDOT": 0
  },
  {
    "OBJECT_NAME": "STARLINK-37121",
    "OBJECT_ID": "2026-063D",
    "EPOCH": "2026-04-17T06:00:02.999808",
    "MEAN_MOTION": 15.75222932,
    "ECCENTRICITY": 0.00010911,
    "INCLINATION": 97.286,
    "RA_OF_ASC_NODE": 248.9206,
    "ARG_OF_PERICENTER": 92.912,
    "MEAN_ANOMALY": 164.9574,
    "EPHEMERIS_TYPE": 0,
    "CLASSIFICATION_TYPE": "U",
    "NORAD_CAT_ID": 68383,
    "ELEMENT_SET_NO": 999,
    "REV_AT_EPOCH": 466,
    "BSTAR": -0.00072063421,
    "MEAN_MOTION_DOT": -0.00106438,
    "MEAN_MOTION_DDOT": 0
  },
  {
    "OBJECT_NAME": "STARLINK-37137",
    "OBJECT_ID": "2026-063E",
    "EPOCH": "2026-04-17T03:52:02.737056",
    "MEAN_MOTION": 15.75209836,
    "ECCENTRICITY": 0.00013298,
    "INCLINATION": 97.2843,
    "RA_OF_ASC_NODE": 248.7767,
    "ARG_OF_PERICENTER": 75.3522,
    "MEAN_ANOMALY": 284.7891,
    "EPHEMERIS_TYPE": 0,
    "CLASSIFICATION_TYPE": "U",
    "NORAD_CAT_ID": 68384,
    "ELEMENT_SET_NO": 999,
    "REV_AT_EPOCH": 369,
    "BSTAR": 0.0010492536,
    "MEAN_MOTION_DOT": 0.00159466,
    "MEAN_MOTION_DDOT": 0
  },
  {
    "OBJECT_NAME": "STARLINK-37128",
    "OBJECT_ID": "2026-063F",
    "EPOCH": "2026-04-17T07:39:45.340128",
    "MEAN_MOTION": 15.80863907,
    "ECCENTRICITY": 0.00013891,
    "INCLINATION": 97.2849,
    "RA_OF_ASC_NODE": 249.022,
    "ARG_OF_PERICENTER": 75.5401,
    "MEAN_ANOMALY": 284.6021,
    "EPHEMERIS_TYPE": 0,
    "CLASSIFICATION_TYPE": "U",
    "NORAD_CAT_ID": 68385,
    "ELEMENT_SET_NO": 999,
    "REV_AT_EPOCH": 372,
    "BSTAR": 0.00066099929,
    "MEAN_MOTION_DOT": 0.00128635,
    "MEAN_MOTION_DDOT": 0
  },
  {
    "OBJECT_NAME": "STARLINK-37198",
    "OBJECT_ID": "2026-063G",
    "EPOCH": "2026-04-17T06:32:08.071296",
    "MEAN_MOTION": 15.75206186,
    "ECCENTRICITY": 0.0001335,
    "INCLINATION": 97.2849,
    "RA_OF_ASC_NODE": 248.9322,
    "ARG_OF_PERICENTER": 71.7585,
    "MEAN_ANOMALY": 288.3826,
    "EPHEMERIS_TYPE": 0,
    "CLASSIFICATION_TYPE": "U",
    "NORAD_CAT_ID": 68386,
    "ELEMENT_SET_NO": 999,
    "REV_AT_EPOCH": 371,
    "BSTAR": 0.00065791467,
    "MEAN_MOTION_DOT": 0.00099219,
    "MEAN_MOTION_DDOT": 0
  },
  {
    "OBJECT_NAME": "STARLINK-37223",
    "OBJECT_ID": "2026-063H",
    "EPOCH": "2026-04-17T04:35:17.092320",
    "MEAN_MOTION": 15.80860687,
    "ECCENTRICITY": 0.0001333,
    "INCLINATION": 97.2847,
    "RA_OF_ASC_NODE": 248.8896,
    "ARG_OF_PERICENTER": 63.4462,
    "MEAN_ANOMALY": 296.6943,
    "EPHEMERIS_TYPE": 0,
    "CLASSIFICATION_TYPE": "U",
    "NORAD_CAT_ID": 68387,
    "ELEMENT_SET_NO": 999,
    "REV_AT_EPOCH": 370,
    "BSTAR": 0.00082064285,
    "MEAN_MOTION_DOT": 0.00160297,
    "MEAN_MOTION_DDOT": 0
  },
  {
    "OBJECT_NAME": "STARLINK-37203",
    "OBJECT_ID": "2026-063J",
    "EPOCH": "2026-04-17T06:05:21.397632",
    "MEAN_MOTION": 15.80843602,
    "ECCENTRICITY": 0.00013013,
    "INCLINATION": 97.2847,
    "RA_OF_ASC_NODE": 248.9575,
    "ARG_OF_PERICENTER": 78.6987,
    "MEAN_ANOMALY": 281.4427,
    "EPHEMERIS_TYPE": 0,
    "CLASSIFICATION_TYPE": "U",
    "NORAD_CAT_ID": 68388,
    "ELEMENT_SET_NO": 999,
    "REV_AT_EPOCH": 371,
    "BSTAR": 0.0006709121,
    "MEAN_MOTION_DOT": 0.00130472,
    "MEAN_MOTION_DDOT": 0
  },
  {
    "OBJECT_NAME": "STARLINK-37197",
    "OBJECT_ID": "2026-063K",
    "EPOCH": "2026-04-17T05:14:22.603488",
    "MEAN_MOTION": 15.75196929,
    "ECCENTRICITY": 0.00013282,
    "INCLINATION": 97.2845,
    "RA_OF_ASC_NODE": 248.8522,
    "ARG_OF_PERICENTER": 79.0392,
    "MEAN_ANOMALY": 281.1022,
    "EPHEMERIS_TYPE": 0,
    "CLASSIFICATION_TYPE": "U",
    "NORAD_CAT_ID": 68389,
    "ELEMENT_SET_NO": 999,
    "REV_AT_EPOCH": 370,
    "BSTAR": 0.0006015942,
    "MEAN_MOTION_DOT": 0.00090586,
    "MEAN_MOTION_DDOT": 0
  },
  {
    "OBJECT_NAME": "STARLINK-37193",
    "OBJECT_ID": "2026-063L",
    "EPOCH": "2026-04-17T06:00:02.999808",
    "MEAN_MOTION": 15.75214008,
    "ECCENTRICITY": 0.00014382,
    "INCLINATION": 97.2847,
    "RA_OF_ASC_NODE": 249.1733,
    "ARG_OF_PERICENTER": 81.481,
    "MEAN_ANOMALY": 52.329,
    "EPHEMERIS_TYPE": 0,
    "CLASSIFICATION_TYPE": "U",
    "NORAD_CAT_ID": 68390,
    "ELEMENT_SET_NO": 999,
    "REV_AT_EPOCH": 299,
    "BSTAR": -0.00054704154,
    "MEAN_MOTION_DOT": -0.0008104,
    "MEAN_MOTION_DDOT": 0
  }
]